[{"OBJECT_NAME":"STARLINK-3267","OBJECT_ID":"2021-125AT","EPOCH":"2026-03-09T18:12:44.257248","MEAN_MOTION":15.08838654,"ECCENTRICITY":0.00013459,"INCLINATION":53.2164,"RA_OF_ASC_NODE":238.8097,"ARG_OF_PERICENTER":92.7958,"MEAN_ANOMALY":267.3189,"EPHEMERIS_TYPE":0,"CLASSIFICATION_TYPE":"U","NORAD_CAT_ID":50197,"ELEMENT_SET_NO":999,"REV_AT_EPOCH":23679,"BSTAR":1.3623153e-5,"MEAN_MOTION_DOT":-7.1e-7,"MEAN_MOTION_DDOT":0},{"OBJECT_NAME":"TITAN 3C TRANSTAGE DEB","OBJECT_ID":"1965-082EA","EPOCH":"2026-03-09T23:10:17.723424","MEAN_MOTION":15.08375165,"ECCENTRICITY":0.00122709,"INCLINATION":32.3951,"RA_OF_ASC_NODE":291.2548,"ARG_OF_PERICENTER":351.0252,"MEAN_ANOMALY":9.0191,"EPHEMERIS_TYPE":0,"CLASSIFICATION_TYPE":"U","NORAD_CAT_ID":1835,"ELEMENT_SET_NO":999,"REV_AT_EPOCH":23237,"BSTAR":0.00035954995,"MEAN_MOTION_DOT":5.778e-5,"MEAN_MOTION_DDOT":0}]
